[{"OBJECT_NAME":"STARLINK-3513","OBJECT_ID":"2022-016AU","EPOCH":"2026-03-09T22:17:49.773120","MEAN_MOTION":15.0883954,"ECCENTRICITY":0.00013386,"INCLINATION":53.2189,"RA_OF_ASC_NODE":308.0441,"ARG_OF_PERICENTER":95.0913,"MEAN_ANOMALY":265.0232,"EPHEMERIS_TYPE":0,"CLASSIFICATION_TYPE":"U","NORAD_CAT_ID":51756,"ELEMENT_SET_NO":999,"REV_AT_EPOCH":22374,"BSTAR":-2.0432753e-5,"MEAN_MOTION_DOT":-6.13e-6,"MEAN_MOTION_DDOT":0},{"OBJECT_NAME":"CZ-2D DEB","OBJECT_ID":"2010-027D","EPOCH":"2026-03-07T13:36:06.977952","MEAN_MOTION":15.23568143,"ECCENTRICITY":0.0065729,"INCLINATION":97.6621,"RA_OF_ASC_NODE":290.9585,"ARG_OF_PERICENTER":344.0278,"MEAN_ANOMALY":15.8885,"EPHEMERIS_TYPE":0,"CLASSIFICATION_TYPE":"U","NORAD_CAT_ID":38299,"ELEMENT_SET_NO":999,"REV_AT_EPOCH":83553,"BSTAR":0.0024156,"MEAN_MOTION_DOT":0.00061723,"MEAN_MOTION_DDOT":0}]
